[{"OBJECT_NAME":"ONEWEB-0066","OBJECT_ID":"2020-020A","EPOCH":"2026-03-09T21:13:49.727712","MEAN_MOTION":13.11418214,"ECCENTRICITY":0.00017404,"INCLINATION":87.8871,"RA_OF_ASC_NODE":40.8097,"ARG_OF_PERICENTER":87.4548,"MEAN_ANOMALY":272.678,"EPHEMERIS_TYPE":0,"CLASSIFICATION_TYPE":"U","NORAD_CAT_ID":45424,"ELEMENT_SET_NO":999,"REV_AT_EPOCH":28966,"BSTAR":-0.00027153972,"MEAN_MOTION_DOT":-8.4e-7,"MEAN_MOTION_DDOT":0},{"OBJECT_NAME":"COSMOS 2499 DEB","OBJECT_ID":"2014-028BY","EPOCH":"2026-03-05T04:30:41.479776","MEAN_MOTION":13.26424195,"ECCENTRICITY":0.02746898,"INCLINATION":82.1564,"RA_OF_ASC_NODE":237.6655,"ARG_OF_PERICENTER":56.0898,"MEAN_ANOMALY":306.6027,"EPHEMERIS_TYPE":0,"CLASSIFICATION_TYPE":"U","NORAD_CAT_ID":60612,"ELEMENT_SET_NO":999,"REV_AT_EPOCH":15005,"BSTAR":0.010728426,"MEAN_MOTION_DOT":5.835e-5,"MEAN_MOTION_DDOT":0}]
